{"type": "FeatureCollection", "features": [ {"type": "Feature", "properties": {"norad_id": 34546, "name": "COSMOS 2251 DEB", "group": "cosmos-2251-debris", "lat": 64.11042188531742, "lon": 43.83924174651389, "alt_km": 745.3947388437673, "timestamp": "2025-12-06T22:38:43.123564+00:00", "meta": {"OBJECT_NAME": "COSMOS 2251 DEB", "OBJECT_ID": "1993-036UG", "EPOCH": "2025-12-06T14:07:37.216416", "MEAN_MOTION": 14.45368319, "ECCENTRICITY": 0.00217821, "INCLINATION": 74.0318, "RA_OF_ASC_NODE": 260.6541, "ARG_OF_PERICENTER": 335.0565, "MEAN_ANOMALY": 89.3109, "EPHEMERIS_TYPE": 0, "CLASSIFICATION_TYPE": "U", "NORAD_CAT_ID": 34546, "ELEMENT_SET_NO": 999, "REV_AT_EPOCH": 87937, "BSTAR": 0.0012908398, "MEAN_MOTION_DOT": 4.528e-05, "MEAN_MOTION_DDOT": 0}, "tle": {"line1": "1 34546U 93036UG  25340.58862519  .00004528  00000+0  12908-2 0  9991", "line2": "2 34546  74.0318 260.6541 0021782 335.0565  89.3109 14.45368319879376"}}, "geometry": {"type": "Point", "coordinates": [43.83924174651389, 64.11042188531742]}}, {"type": "Feature", "properties": {"norad_id": 34547, "name": "COSMOS 2251 DEB", "group": "cosmos-2251-debris", "lat": 71.51221475154081, "lon": -126.91272779325274, "alt_km": 647.6511356972514, "timestamp": "2025-12-06T22:38:43.123574+00:00", "meta": {"OBJECT_NAME": "COSMOS 2251 DEB", "OBJECT_ID": "1993-036UH", "EPOCH": "2025-12-06T15:40:13.304064", "MEAN_MOTION": 14.72101295, "ECCENTRICITY": 0.00182423, "INCLINATION": 74.0308, "RA_OF_ASC_NODE": 112.5708, "ARG_OF_PERICENTER": 192.7343, "MEAN_ANOMALY": 167.3371, "EPHEMERIS_TYPE": 0, "CLASSIFICATION_TYPE": "U", "NORAD_CAT_ID": 34547, "ELEMENT_SET_NO": 999, "REV_AT_EPOCH": 88432, "BSTAR": 0.0038834839, "MEAN_MOTION_DOT": 0.00024558, "MEAN_MOTION_DDOT": 0}, "tle": {"line1": "1 34547U 93036UH  25340.65293176  .00024558  00000+0  38835-2 0  9999", "line2": "2 34547  74.0308 112.5708 0018242 192.7343 167.3371 14.72101295884322"}}, "geometry": {"type": "Point", "coordinates": [-126.91272779325274, 71.51221475154081]}}, {"type": "Feature", "properties": {"norad_id": 34553, "name": "COSMOS 2251 DEB", "group": "cosmos-2251-debris", "lat": -56.96172272694183, "lon": 176.7828554657219, "alt_km": 694.3890455690025, "timestamp": "2025-12-06T22:38:43.123584+00:00", "meta": {"OBJECT_NAME": "COSMOS 2251 DEB", "OBJECT_ID": "1993-036UP", "EPOCH": "2025-12-06T10:01:28.013376", "MEAN_MOTION": 14.57635005, "ECCENTRICITY": 0.0019578, "INCLINATION": 74.0245, "RA_OF_ASC_NODE": 203.9175, "ARG_OF_PERICENTER": 281.7412, "MEAN_ANOMALY": 139.1838, "EPHEMERIS_TYPE": 0, "CLASSIFICATION_TYPE": "U", "NORAD_CAT_ID": 34553, "ELEMENT_SET_NO": 999, "REV_AT_EPOCH": 88004, "BSTAR": 0.0020259605, "MEAN_MOTION_DOT": 9.242e-05, "MEAN_MOTION_DDOT": 0}, "tle": {"line1": "1 34553U 93036UP  25340.41768534  .00009242  00000+0  20260-2 0  9991", "line2": "2 34553  74.0245 203.9175 0019578 281.7412 139.1838 14.57635005880045"}}, "geometry": {"type": "Point", "coordinates": [176.7828554657219, -56.96172272694183]}}, {"type": "Feature", "properties": {"norad_id": 34554, "name": "COSMOS 2251 DEB", "group": "cosmos-2251-debris", "lat": 72.48834010497333, "lon": 64.5586527411606, "alt_km": 756.299885012193, "timestamp": "2025-12-06T22:38:43.123594+00:00", "meta": {"OBJECT_NAME": "COSMOS 2251 DEB", "OBJECT_ID": "1993-036UQ", "EPOCH": "2025-12-04T23:42:19.325952", "MEAN_MOTION": 14.37912452, "ECCENTRICITY": 0.0022634, "INCLINATION": 74.0382, "RA_OF_ASC_NODE": 313.2655, "ARG_OF_PERICENTER": 17.4579, "MEAN_ANOMALY": 39.2705, "EPHEMERIS_TYPE": 0, "CLASSIFICATION_TYPE": "U", "NORAD_CAT_ID": 34554, "ELEMENT_SET_NO": 999, "REV_AT_EPOCH": 87644, "BSTAR": 0.0006467, "MEAN_MOTION_DOT": 1.933e-05, "MEAN_MOTION_DDOT": 0}, "tle": {"line1": "1 34554U 93036UQ  25338.98772368  .00001933  00000+0  64670-3 0  9994", "line2": "2 34554  74.0382 313.2655 0022634  17.4579  39.2705 14.37912452876445"}}, "geometry": {"type": "Point", "coordinates": [64.5586527411606, 72.48834010497333]}}, {"type": "Feature", "properties": {"norad_id": 34556, "name": "COSMOS 2251 DEB", "group": "cosmos-2251-debris", "lat": 31.232803170008044, "lon": -53.7656911189969, "alt_km": 631.0257537129255, "timestamp": "2025-12-06T22:38:43.123604+00:00", "meta": {"OBJECT_NAME": "COSMOS 2251 DEB", "OBJECT_ID": "1993-036US", "EPOCH": "2025-12-06T10:44:48.283584", "MEAN_MOTION": 14.77492022, "ECCENTRICITY": 0.00086879, "INCLINATION": 74.0157, "RA_OF_ASC_NODE": 137.2178, "ARG_OF_PERICENTER": 196.4634, "MEAN_ANOMALY": 194.9423, "EPHEMERIS_TYPE": 0, "CLASSIFICATION_TYPE": "U", "NORAD_CAT_ID": 34556, "ELEMENT_SET_NO": 999, "REV_AT_EPOCH": 88236, "BSTAR": 0.0042065977, "MEAN_MOTION_DOT": 0.00030119, "MEAN_MOTION_DDOT": 0}, "tle": {"line1": "1 34556U 93036US  25340.44778106  .00030119  00000+0  42066-2 0  9998", "line2": "2 34556  74.0157 137.2178 0008687 196.4634 194.9423 14.77492022882367"}}, "geometry": {"type": "Point", "coordinates": [-53.7656911189969, 31.232803170008044]}}, {"type": "Feature", "properties": {"norad_id": 34560, "name": "COSMOS 2251 DEB", "group": "cosmos-2251-debris", "lat": 20.78437729457996, "lon": -32.826031966130564, "alt_km": 651.9721224602754, "timestamp": "2025-12-06T22:38:43.123614+00:00", "meta": {"OBJECT_NAME": "COSMOS 2251 DEB", "OBJECT_ID": "1993-036UW", "EPOCH": "2025-12-05T18:15:09.650304", "MEAN_MOTION": 14.71848761, "ECCENTRICITY": 0.00152187, "INCLINATION": 74.0158, "RA_OF_ASC_NODE": 155.7221, "ARG_OF_PERICENTER": 236.6913, "MEAN_ANOMALY": 135.7434, "EPHEMERIS_TYPE": 0, "CLASSIFICATION_TYPE": "U", "NORAD_CAT_ID": 34560, "ELEMENT_SET_NO": 999, "REV_AT_EPOCH": 88149, "BSTAR": 0.0037712821, "MEAN_MOTION_DOT": 0.00023688, "MEAN_MOTION_DDOT": 0}, "tle": {"line1": "1 34560U 93036UW  25339.76052836  .00023688  00000+0  37713-2 0  9997", "line2": "2 34560  74.0158 155.7221 0015218 236.6913 135.7434 14.71848761881499"}}, "geometry": {"type": "Point", "coordinates": [-32.826031966130564, 20.78437729457996]}}, {"type": "Feature", "properties": {"norad_id": 34563, "name": "COSMOS 2251 DEB", "group": "cosmos-2251-debris", "lat": 73.13393003945122, "lon": -36.21230216626912, "alt_km": 738.031417980621, "timestamp": "2025-12-06T22:38:43.123624+00:00", "meta": {"OBJECT_NAME": "COSMOS 2251 DEB", "OBJECT_ID": "1993-036UZ", "EPOCH": "2025-12-06T15:42:24.594912", "MEAN_MOTION": 14.46481594, "ECCENTRICITY": 0.00138259, "INCLINATION": 74.0382, "RA_OF_ASC_NODE": 215.0687, "ARG_OF_PERICENTER": 309.1767, "MEAN_ANOMALY": 81.371, "EPHEMERIS_TYPE": 0, "CLASSIFICATION_TYPE": "U", "NORAD_CAT_ID": 34563, "ELEMENT_SET_NO": 999, "REV_AT_EPOCH": 88109, "BSTAR": 0.00089882739, "MEAN_MOTION_DOT": 3.212e-05, "MEAN_MOTION_DDOT": 0}, "tle": {"line1": "1 34563U 93036UZ  25340.65445133  .00003212  00000+0  89883-3 0  9993", "line2": "2 34563  74.0382 215.0687 0013825 309.1767  81.3710 14.46481594881090"}}, "geometry": {"type": "Point", "coordinates": [-36.21230216626912, 73.13393003945122]}}, {"type": "Feature", "properties": {"norad_id": 34564, "name": "COSMOS 2251 DEB", "group": "cosmos-2251-debris", "lat": -4.486131396766018, "lon": -112.55210391377388, "alt_km": 746.0631096324387, "timestamp": "2025-12-06T22:38:43.123634+00:00", "meta": {"OBJECT_NAME": "COSMOS 2251 DEB", "OBJECT_ID": "1993-036VA", "EPOCH": "2025-12-06T12:56:15.501120", "MEAN_MOTION": 14.40673541, "ECCENTRICITY": 0.00187736, "INCLINATION": 74.0329, "RA_OF_ASC_NODE": 249.4831, "ARG_OF_PERICENTER": 354.5486, "MEAN_ANOMALY": 63.9023, "EPHEMERIS_TYPE": 0, "CLASSIFICATION_TYPE": "U", "NORAD_CAT_ID": 34564, "ELEMENT_SET_NO": 999, "REV_AT_EPOCH": 87917, "BSTAR": 0.00049935342, "MEAN_MOTION_DOT": 1.571e-05, "MEAN_MOTION_DDOT": 0}, "tle": {"line1": "1 34564U 93036VA  25340.53906830  .00001571  00000+0  49935-3 0  9997", "line2": "2 34564  74.0329 249.4831 0018773 354.5486  63.9023 14.40673541879171"}}, "geometry": {"type": "Point", "coordinates": [-112.55210391377388, -4.486131396766018]}}, {"type": "Feature", "properties": {"norad_id": 34567, "name": "COSMOS 2251 DEB", "group": "cosmos-2251-debris", "lat": 28.145229293439147, "lon": 176.01846060666003, "alt_km": 854.9773614887508, "timestamp": "2025-12-06T22:38:43.123644+00:00", "meta": {"OBJECT_NAME": "COSMOS 2251 DEB", "OBJECT_ID": "1993-036VD", "EPOCH": "2025-12-06T14:22:48.585216", "MEAN_MOTION": 14.24006756, "ECCENTRICITY": 0.00745968, "INCLINATION": 74.0398, "RA_OF_ASC_NODE": 167.8318, "ARG_OF_PERICENTER": 243.3952, "MEAN_ANOMALY": 180.8697, "EPHEMERIS_TYPE": 0, "CLASSIFICATION_TYPE": "U", "NORAD_CAT_ID": 34567, "ELEMENT_SET_NO": 999, "REV_AT_EPOCH": 87037, "BSTAR": 0.00034641339, "MEAN_MOTION_DOT": 7.93e-06, "MEAN_MOTION_DDOT": 0}, "tle": {"line1": "1 34567U 93036VD  25340.59917344  .00000793  00000+0  34641-3 0  9991", "line2": "2 34567  74.0398 167.8318 0074596 243.3952 180.8697 14.24006756870370"}}, "geometry": {"type": "Point", "coordinates": [176.01846060666003, 28.145229293439147]}}, {"type": "Feature", "properties": {"norad_id": 34569, "name": "COSMOS 2251 DEB", "group": "cosmos-2251-debris", "lat": -1.1735699873741146, "lon": 28.953626167548634, "alt_km": 901.3554998525979, "timestamp": "2025-12-06T22:38:43.123655+00:00", "meta": {"OBJECT_NAME": "COSMOS 2251 DEB", "OBJECT_ID": "1993-036VF", "EPOCH": "2025-12-06T15:12:26.875296", "MEAN_MOTION": 14.24727627, "ECCENTRICITY": 0.01570241, "INCLINATION": 73.991, "RA_OF_ASC_NODE": 209.1768, "ARG_OF_PERICENTER": 38.9792, "MEAN_ANOMALY": 352.1222, "EPHEMERIS_TYPE": 0, "CLASSIFICATION_TYPE": "U", "NORAD_CAT_ID": 34569, "ELEMENT_SET_NO": 999, "REV_AT_EPOCH": 86881, "BSTAR": 0.0010217479, "MEAN_MOTION_DOT": 2.68e-05, "MEAN_MOTION_DDOT": 0}, "tle": {"line1": "1 34569U 93036VF  25340.63364439  .00002680  00000+0  10217-2 0  9998", "line2": "2 34569  73.9910 209.1768 0157024  38.9792 352.1222 14.24727627868818"}}, "geometry": {"type": "Point", "coordinates": [28.953626167548634, -1.1735699873741146]}}]}